start=new Date('2021-11-18T00:00:00.000Z').valueOf();
sats=[{"RA_OF_ASC_NODE":"52.8982","OBJECT_NAME":"STARLINK-2168","RCS_SIZE":"LARGE","TLE_LINE2":"2 47751  53.0536  52.8982 0001351  78.7601 281.3539 15.06402946 40935","FILE":"3217982","DECAY_DATE":null,"TIME_SYSTEM":"UTC","NORAD_CAT_ID":"47751","OBJECT_TYPE":"PAYLOAD","CLASSIFICATION_TYPE":"U","GP_ID":"189977728","INCLINATION":"53.0536","APOAPSIS":"548.140","BSTAR":"0.00001186200000","SITE":"AFETR","COUNTRY_CODE":"US","SEMIMAJOR_AXIS":"6925.340","LAUNCH_DATE":"2021-03-04","PERIOD":"95.592","EPHEMERIS_TYPE":"0","MEAN_MOTION_DDOT":"0.0000000000000","PERIAPSIS":"546.269","OBJECT_ID":"2021-017AF","REF_FRAME":"TEME","ARG_OF_PERICENTER":"78.7601","MEAN_MOTION":"15.06402946","ECCENTRICITY":"0.00013510","TLE_LINE1":"1 47751U 21017AF  21321.73173021 -.00000105  00000-0  11862-4 0  9997","ELEMENT_SET_NO":"999","MEAN_ELEMENT_THEORY":"SGP4","MEAN_MOTION_DOT":"-0.00000105","REV_AT_EPOCH":"4093","EPOCH":"2021-11-17T17:33:41.490144","CENTER_NAME":"EARTH","MEAN_ANOMALY":"281.3539"},{"NORAD_CAT_ID":"47752","TIME_SYSTEM":"UTC","DECAY_DATE":null,"FILE":"3217982","TLE_LINE2":"2 47752  53.0562  67.7600 0000946  90.8022 269.3076 15.06397161 40774","RCS_SIZE":"MEDIUM","RA_OF_ASC_NODE":"67.7600","OBJECT_NAME":"STARLINK-2169","BSTAR":"0.00011108000000","APOAPSIS":"547.877","INCLINATION":"53.0562","GP_ID":"189975976","CLASSIFICATION_TYPE":"U","OBJECT_TYPE":"PAYLOAD","REF_FRAME":"TEME","OBJECT_ID":"2021-017AG","PERIAPSIS":"546.567","MEAN_MOTION_DDOT":"0.0000000000000","EPHEMERIS_TYPE":"0","SEMIMAJOR_AXIS":"6925.357","LAUNCH_DATE":"2021-03-04","PERIOD":"95.592","SITE":"AFETR","COUNTRY_CODE":"US","MEAN_ANOMALY":"269.3076","CENTER_NAME":"EARTH","EPOCH":"2021-11-17T18:22:07.579200","REV_AT_EPOCH":"4077","MEAN_MOTION_DOT":"0.00001374","MEAN_ELEMENT_THEORY":"SGP4","ELEMENT_SET_NO":"999","TLE_LINE1":"1 47752U 21017AG  21321.76536550  .00001374  00000-0  11108-3 0  9991","ECCENTRICITY":"0.00009460","MEAN_MOTION":"15.06397161","ARG_OF_PERICENTER":"90.8022"},{"TLE_LINE1":"1 47753U 21017AH  21321.87366160 -.00001958  00000-0 -11267-3 0  9998","ELEMENT_SET_NO":"999","ECCENTRICITY":"0.00012570","MEAN_ELEMENT_THEORY":"SGP4","ARG_OF_PERICENTER":"80.0202","MEAN_MOTION":"15.06375867","MEAN_ANOMALY":"280.0928","CENTER_NAME":"EARTH","MEAN_MOTION_DOT":"-0.00001958","REV_AT_EPOCH":"4071","EPOCH":"2021-11-17T20:58:04.362240","LAUNCH_DATE":"2021-03-04","PERIOD":"95.594","SEMIMAJOR_AXIS":"6925.423","COUNTRY_CODE":"US","SITE":"AFETR","OBJECT_ID":"2021-017AH","REF_FRAME":"TEME","EPHEMERIS_TYPE":"0","PERIAPSIS":"546.417","MEAN_MOTION_DDOT":"0.0000000000000","OBJECT_TYPE":"PAYLOAD","BSTAR":"-0.00011267000000","APOAPSIS":"548.158","CLASSIFICATION_TYPE":"U","INCLINATION":"53.0566","GP_ID":"189976226","FILE":"3217982","OBJECT_NAME":"STARLINK-2170","RA_OF_ASC_NODE":"72.2521","TLE_LINE2":"2 47753  53.0566  72.2521 0001257  80.0202 280.0928 15.06375867 40718","RCS_SIZE":"LARGE","NORAD_CAT_ID":"47753","TIME_SYSTEM":"UTC","DECAY_DATE":null},{"OBJECT_TYPE":"PAYLOAD","APOAPSIS":"548.066","BSTAR":"0.00011462000000","INCLINATION":"53.0565","GP_ID":"189976975","CLASSIFICATION_TYPE":"U","FILE":"3217982","RCS_SIZE":"LARGE","TLE_LINE2":"2 47754  53.0565  72.9886 0001238  85.9324 274.1807 15.06401652 40652","RA_OF_ASC_NODE":"72.9886","OBJECT_NAME":"STARLINK-2171","TIME_SYSTEM":"UTC","NORAD_CAT_ID":"47754","DECAY_DATE":null,"MEAN_ELEMENT_THEORY":"SGP4","ECCENTRICITY":"0.00012380","ELEMENT_SET_NO":"999","TLE_LINE1":"1 47754U 21017AJ  21321.71145669  .00001426  00000-0  11462-3 0  9996","MEAN_MOTION":"15.06401652","ARG_OF_PERICENTER":"85.9324","CENTER_NAME":"EARTH","MEAN_ANOMALY":"274.1807","EPOCH":"2021-11-17T17:04:29.858016","MEAN_MOTION_DOT":"0.00001426","REV_AT_EPOCH":"4065","COUNTRY_CODE":"US","SITE":"AFETR","SEMIMAJOR_AXIS":"6925.343","LAUNCH_DATE":"2021-03-04","PERIOD":"95.592","REF_FRAME":"TEME","OBJECT_ID":"2021-017AJ","MEAN_MOTION_DDOT":"0.0000000000000","PERIAPSIS":"546.351","EPHEMERIS_TYPE":"0"},{"PERIAPSIS":"546.322","MEAN_MOTION_DDOT":"0.0000000000000","EPHEMERIS_TYPE":"0","REF_FRAME":"TEME","OBJECT_ID":"2021-017AK","PERIOD":"95.592","LAUNCH_DATE":"2021-03-04","SEMIMAJOR_AXIS":"6925.341","COUNTRY_CODE":"US","SITE":"AFETR","EPOCH":"2021-11-17T13:34:08.915808","REV_AT_EPOCH":"4069","MEAN_MOTION_DOT":"-0.00000205","MEAN_ANOMALY":"268.6671","CENTER_NAME":"EARTH","MEAN_MOTION":"15.06402436","ARG_OF_PERICENTER":"91.4465","MEAN_ELEMENT_THEORY":"SGP4","TLE_LINE1":"1 47755U 21017AK  21321.56538097 -.00000205  00000-0  51174-5 0  9992","ELEMENT_SET_NO":"999","ECCENTRICITY":"0.00012770","DECAY_DATE":null,"NORAD_CAT_ID":"47755","TIME_SYSTEM":"UTC","TLE_LINE2":"2 47755  53.0564  68.6585 0001277  91.4465 268.6671 15.06402436 40693","RCS_SIZE":"LARGE","RA_OF_ASC_NODE":"68.6585","OBJECT_NAME":"STARLINK-2172","FILE":"3217982","INCLINATION":"53.0564","GP_ID":"189977228","CLASSIFICATION_TYPE":"U","BSTAR":"0.00000511740000","APOAPSIS":"548.090","OBJECT_TYPE":"PAYLOAD"},{"DECAY_DATE":null,"NORAD_CAT_ID":"47756","TIME_SYSTEM":"UTC","TLE_LINE2":"2 47756  53.0567  73.0105 0001320  75.5801 284.5334 15.06395078 40697","RCS_SIZE":"LARGE","OBJECT_NAME":"STARLINK-2174","RA_OF_ASC_NODE":"73.0105","FILE":"3217982","INCLINATION":"53.0567","GP_ID":"189976477","CLASSIFICATION_TYPE":"U","BSTAR":"0.00001809700000","APOAPSIS":"548.143","OBJECT_TYPE":"PAYLOAD","PERIAPSIS":"546.314","MEAN_MOTION_DDOT":"0.0000000000000","EPHEMERIS_TYPE":"0","REF_FRAME":"TEME","OBJECT_ID":"2021-017AL","LAUNCH_DATE":"2021-03-04","SEMIMAJOR_AXIS":"6925.364","PERIOD":"95.592","COUNTRY_CODE":"US","SITE":"AFETR","EPOCH":"2021-11-17T16:59:11.487840","REV_AT_EPOCH":"4069","MEAN_MOTION_DOT":"-0.00000012","MEAN_ANOMALY":"284.5334","CENTER_NAME":"EARTH","MEAN_MOTION":"15.06395078","ARG_OF_PERICENTER":"75.5801","MEAN_ELEMENT_THEORY":"SGP4","TLE_LINE1":"1 47756U 21017AL  21321.70777185 -.00000012  00000-0  18097-4 0  9994","ELEMENT_SET_NO":"999","ECCENTRICITY":"0.00013200"},{"ARG_OF_PERICENTER":"89.5921","MEAN_MOTION":"15.06402119","TLE_LINE1":"1 47757U 21017AM  21321.82572291 -.00000041  00000-0  16161-4 0  9991","ELEMENT_SET_NO":"999","ECCENTRICITY":"0.00013130","MEAN_ELEMENT_THEORY":"SGP4","REV_AT_EPOCH":"4065","MEAN_MOTION_DOT":"-0.00000041","EPOCH":"2021-11-17T19:49:02.459424","MEAN_ANOMALY":"270.5218","CENTER_NAME":"EARTH","PERIOD":"95.592","LAUNCH_DATE":"2021-03-04","SEMIMAJOR_AXIS":"6925.342","SITE":"AFETR","COUNTRY_CODE":"US","EPHEMERIS_TYPE":"0","PERIAPSIS":"546.298","MEAN_MOTION_DDOT":"0.0000000000000","OBJECT_ID":"2021-017AM","REF_FRAME":"TEME","OBJECT_TYPE":"PAYLOAD","CLASSIFICATION_TYPE":"U","GP_ID":"189976727","INCLINATION":"53.0574","BSTAR":"0.00001616100000","APOAPSIS":"548.116","OBJECT_NAME":"STARLINK-2175","RA_OF_ASC_NODE":"72.4787","TLE_LINE2":"2 47757  53.0574  72.4787 0001313  89.5921 270.5218 15.06402119 40652","RCS_SIZE":"MEDIUM","FILE":"3217982","DECAY_DATE":null,"NORAD_CAT_ID":"47757","TIME_SYSTEM":"UTC"},{"ECCENTRICITY":"0.00075970","TLE_LINE1":"1 47758U 21017AN  21321.56403321  .00000996  00000-0  85882-4 0  9994","ELEMENT_SET_NO":"999","MEAN_ELEMENT_THEORY":"SGP4","ARG_OF_PERICENTER":"35.1586","MEAN_MOTION":"15.06393381","CENTER_NAME":"EARTH","MEAN_ANOMALY":"324.9903","MEAN_MOTION_DOT":"0.00000996","REV_AT_EPOCH":"4067","EPOCH":"2021-11-17T13:32:12.469344","SITE":"AFETR","COUNTRY_CODE":"US","LAUNCH_DATE":"2021-03-04","PERIOD":"95.593","SEMIMAJOR_AXIS":"6925.369","OBJECT_ID":"2021-017AN","REF_FRAME":"TEME","EPHEMERIS_TYPE":"0","MEAN_MOTION_DDOT":"0.0000000000000","PERIAPSIS":"541.973","OBJECT_TYPE":"PAYLOAD","APOAPSIS":"552.495","BSTAR":"0.00008588200000","CLASSIFICATION_TYPE":"U","GP_ID":"189977476","INCLINATION":"53.0559","FILE":"3217982","RA_OF_ASC_NODE":"73.6617","OBJECT_NAME":"STARLINK-2176","RCS_SIZE":"LARGE","TLE_LINE2":"2 47758  53.0559  73.6617 0007597  35.1586 324.9903 15.06393381 40672","TIME_SYSTEM":"UTC","NORAD_CAT_ID":"47758","DECAY_DATE":null},{"PERIOD":"92.534","LAUNCH_DATE":"2021-03-04","SEMIMAJOR_AXIS":"6776.826","COUNTRY_CODE":"US","SITE":"AFETR","EPHEMERIS_TYPE":"0","PERIAPSIS":"396.988","MEAN_MOTION_DDOT":"0.0000000000000","OBJECT_ID":"2021-017AP","REF_FRAME":"TEME","ARG_OF_PERICENTER":"32.7733","MEAN_MOTION":"15.56192176","ELEMENT_SET_NO":"999","TLE_LINE1":"1 47759U 21017AP  21321.52859293  .00095850  00000-0  13345-2 0  9990","ECCENTRICITY":"0.00025140","MEAN_ELEMENT_THEORY":"SGP4","REV_AT_EPOCH":"4101","MEAN_MOTION_DOT":"0.00095850","EPOCH":"2021-11-17T12:41:10.429152","MEAN_ANOMALY":"327.3433","CENTER_NAME":"EARTH","RA_OF_ASC_NODE":"48.3276","OBJECT_NAME":"STARLINK-2177","TLE_LINE2":"2 47759  53.0557  48.3276 0002514  32.7733 327.3433 15.56192176 41010","RCS_SIZE":"LARGE","FILE":"3217982","DECAY_DATE":null,"NORAD_CAT_ID":"47759","TIME_SYSTEM":"UTC","OBJECT_TYPE":"PAYLOAD","CLASSIFICATION_TYPE":"U","INCLINATION":"53.0557","GP_ID":"189977729","BSTAR":"0.00133450000000","APOAPSIS":"400.395"},{"RA_OF_ASC_NODE":"82.3038","OBJECT_NAME":"STARLINK-2178","TLE_LINE2":"2 47760  53.0591  82.3038 0001285  86.8101 273.3035 15.06392392 40550","RCS_SIZE":"LARGE","FILE":"3217982","DECAY_DATE":null,"NORAD_CAT_ID":"47760","TIME_SYSTEM":"UTC","OBJECT_TYPE":"PAYLOAD","CLASSIFICATION_TYPE":"U","INCLINATION":"53.0591","GP_ID":"189975977","BSTAR":"0.00000552480000","APOAPSIS":"548.127","LAUNCH_DATE":"2021-03-04","PERIOD":"95.593","SEMIMAJOR_AXIS":"6925.372","SITE":"AFETR","COUNTRY_CODE":"US","EPHEMERIS_TYPE":"0","PERIAPSIS":"546.347","MEAN_MOTION_DDOT":"0.0000000000000","OBJECT_ID":"2021-017AQ","REF_FRAME":"TEME","ARG_OF_PERICENTER":"86.8101","MEAN_MOTION":"15.06392392","TLE_LINE1":"1 47760U 21017AQ  21321.85798174 -.00000199  00000-0  55248-5 0  9992","ELEMENT_SET_NO":"999","ECCENTRICITY":"0.00012850","MEAN_ELEMENT_THEORY":"SGP4","REV_AT_EPOCH":"4055","MEAN_MOTION_DOT":"-0.00000199","EPOCH":"2021-11-17T20:35:29.622336","MEAN_ANOMALY":"273.3035","CENTER_NAME":"EARTH"}];
